STARLINK-2146_new
1 17735C 21017P   21326.12117857  .00000336  00000-0  22523-4 0  3267
2 17735  53.0528 338.1796 0001376  68.6578  36.2654 15.06395332    19
STARLINK-2146_old
1 27735C 21017P   21325.16197907 -.00001005  00000-0 -67365-4 0  3252
2 27735  53.0525 342.4859 0001313  71.4229 228.8922 15.06386330    15
